[{"OBJECT_NAME":"ONEWEB-0435","OBJECT_ID":"2022-012L","EPOCH":"2026-03-09T22:20:25.757952","MEAN_MOTION":13.1037626,"ECCENTRICITY":0.00018269,"INCLINATION":87.8772,"RA_OF_ASC_NODE":56.0428,"ARG_OF_PERICENTER":98.6962,"MEAN_ANOMALY":261.4373,"EPHEMERIS_TYPE":0,"CLASSIFICATION_TYPE":"U","NORAD_CAT_ID":51632,"ELEMENT_SET_NO":999,"REV_AT_EPOCH":19631,"BSTAR":4.7716794e-5,"MEAN_MOTION_DOT":2.9e-7,"MEAN_MOTION_DDOT":0},{"OBJECT_NAME":"FENGYUN 1C DEB","OBJECT_ID":"1999-025EGH","EPOCH":"2026-03-07T12:00:45.232992","MEAN_MOTION":13.52144667,"ECCENTRICITY":0.02833091,"INCLINATION":98.9783,"RA_OF_ASC_NODE":171.4219,"ARG_OF_PERICENTER":326.1213,"MEAN_ANOMALY":32.2107,"EPHEMERIS_TYPE":0,"CLASSIFICATION_TYPE":"U","NORAD_CAT_ID":37415,"ELEMENT_SET_NO":999,"REV_AT_EPOCH":63467,"BSTAR":0.00045584814,"MEAN_MOTION_DOT":3.46e-6,"MEAN_MOTION_DDOT":0}]
